{"type": "FeatureCollection", "features": [ {"type": "Feature", "properties": {"norad_id": 30771, "name": "FENGYUN 1C DEB", "group": "fengyun-1c-debris", "lat": 70.63673589760567, "lon": -50.008907347856464, "alt_km": 756.1695126778177, "timestamp": "2025-12-26T15:29:39.718102+00:00", "meta": {"OBJECT_NAME": "FENGYUN 1C DEB", "OBJECT_ID": "1999-025AUH", "EPOCH": "2025-12-25T20:51:24.197184", "MEAN_MOTION": 14.43376589, "ECCENTRICITY": 0.00221398, "INCLINATION": 98.9066, "RA_OF_ASC_NODE": 335.6806, "ARG_OF_PERICENTER": 260.2033, "MEAN_ANOMALY": 99.6655, "EPHEMERIS_TYPE": 0, "CLASSIFICATION_TYPE": "U", "NORAD_CAT_ID": 30771, "ELEMENT_SET_NO": 999, "REV_AT_EPOCH": 97253, "BSTAR": 0.0025623969, "MEAN_MOTION_DOT": 8.634e-05, "MEAN_MOTION_DDOT": 0}, "tle": {"line1": "1 30771U 99025AUH 25359.86903006  .00008634  00000+0  25624-2 0  9990", "line2": "2 30771  98.9066 335.6806 0022139 260.2033  99.6655 14.43376589972538"}}, "geometry": {"type": "Point", "coordinates": [-50.008907347856464, 70.63673589760567]}}, {"type": "Feature", "properties": {"norad_id": 30802, "name": "FENGYUN 1C DEB", "group": "fengyun-1c-debris", "lat": 22.087190688094214, "lon": 84.08349023669066, "alt_km": 771.4050780699663, "timestamp": "2025-12-26T15:29:39.718112+00:00", "meta": {"OBJECT_NAME": "FENGYUN 1C DEB", "OBJECT_ID": "1999-025AUL", "EPOCH": "2025-12-26T05:27:28.410624", "MEAN_MOTION": 14.32567241, "ECCENTRICITY": 0.00174936, "INCLINATION": 98.8364, "RA_OF_ASC_NODE": 87.2766, "ARG_OF_PERICENTER": 359.42, "MEAN_ANOMALY": 27.5035, "EPHEMERIS_TYPE": 0, "CLASSIFICATION_TYPE": "U", "NORAD_CAT_ID": 30802, "ELEMENT_SET_NO": 999, "REV_AT_EPOCH": 97396, "BSTAR": 0.0016692609, "MEAN_MOTION_DOT": 4.494e-05, "MEAN_MOTION_DDOT": 0}, "tle": {"line1": "1 30802U 99025AUL 25360.22741216  .00004494  00000+0  16693-2 0  9996", "line2": "2 30802  98.8364  87.2766 0017493 359.4200  27.5035 14.32567241973967"}}, "geometry": {"type": "Point", "coordinates": [84.08349023669066, 22.087190688094214]}}, {"type": "Feature", "properties": {"norad_id": 30803, "name": "FENGYUN 1C DEB", "group": "fengyun-1c-debris", "lat": 4.75849916941744, "lon": 33.46002331689612, "alt_km": 929.2063932167785, "timestamp": "2025-12-26T15:29:39.718122+00:00", "meta": {"OBJECT_NAME": "FENGYUN 1C DEB", "OBJECT_ID": "1999-025AUM", "EPOCH": "2025-12-26T02:09:58.470048", "MEAN_MOTION": 14.11307772, "ECCENTRICITY": 0.01075362, "INCLINATION": 99.2453, "RA_OF_ASC_NODE": 33.6652, "ARG_OF_PERICENTER": 164.6015, "MEAN_ANOMALY": 260.8339, "EPHEMERIS_TYPE": 0, "CLASSIFICATION_TYPE": "U", "NORAD_CAT_ID": 30803, "ELEMENT_SET_NO": 999, "REV_AT_EPOCH": 96187, "BSTAR": 0.0011509826, "MEAN_MOTION_DOT": 2.15e-05, "MEAN_MOTION_DDOT": 0}, "tle": {"line1": "1 30803U 99025AUM 25360.09026007  .00002150  00000+0  11510-2 0  9996", "line2": "2 30803  99.2453  33.6652 0107536 164.6015 260.8339 14.11307772961873"}}, "geometry": {"type": "Point", "coordinates": [33.46002331689612, 4.75849916941744]}}, {"type": "Feature", "properties": {"norad_id": 30804, "name": "FENGYUN 1C DEB", "group": "fengyun-1c-debris", "lat": 38.71732547611973, "lon": 59.754223091982915, "alt_km": 748.4225684676658, "timestamp": "2025-12-26T15:29:39.718131+00:00", "meta": {"OBJECT_NAME": "FENGYUN 1C DEB", "OBJECT_ID": "1999-025AUN", "EPOCH": "2025-12-26T03:53:06.114048", "MEAN_MOTION": 14.546727, "ECCENTRICITY": 0.01859943, "INCLINATION": 98.8931, "RA_OF_ASC_NODE": 66.4505, "ARG_OF_PERICENTER": 149.9275, "MEAN_ANOMALY": 239.7586, "EPHEMERIS_TYPE": 0, "CLASSIFICATION_TYPE": "U", "NORAD_CAT_ID": 30804, "ELEMENT_SET_NO": 999, "REV_AT_EPOCH": 99672, "BSTAR": 0.00042394692, "MEAN_MOTION_DOT": 2.225e-05, "MEAN_MOTION_DDOT": 0}, "tle": {"line1": "1 30804U 99025AUN 25360.16187632  .00002225  00000+0  42395-3 0  9996", "line2": "2 30804  98.8931  66.4505 0185994 149.9275 239.7586 14.54672700996723"}}, "geometry": {"type": "Point", "coordinates": [59.754223091982915, 38.71732547611973]}}, {"type": "Feature", "properties": {"norad_id": 30805, "name": "FENGYUN 1C DEB", "group": "fengyun-1c-debris", "lat": 55.38169951974624, "lon": -124.13079498075471, "alt_km": 904.8544761812136, "timestamp": "2025-12-26T15:29:39.718141+00:00", "meta": {"OBJECT_NAME": "FENGYUN 1C DEB", "OBJECT_ID": "1999-025AUP", "EPOCH": "2025-12-26T01:20:58.344576", "MEAN_MOTION": 14.0293342, "ECCENTRICITY": 0.00707271, "INCLINATION": 98.8198, "RA_OF_ASC_NODE": 42.3008, "ARG_OF_PERICENTER": 246.6314, "MEAN_ANOMALY": 142.6198, "EPHEMERIS_TYPE": 0, "CLASSIFICATION_TYPE": "U", "NORAD_CAT_ID": 30805, "ELEMENT_SET_NO": 999, "REV_AT_EPOCH": 96147, "BSTAR": 0.001016474, "MEAN_MOTION_DOT": 1.568e-05, "MEAN_MOTION_DDOT": 0}, "tle": {"line1": "1 30805U 99025AUP 25360.05623084  .00001568  00000+0  10165-2 0  9999", "line2": "2 30805  98.8198  42.3008 0070727 246.6314 142.6198 14.02933420961473"}}, "geometry": {"type": "Point", "coordinates": [-124.13079498075471, 55.38169951974624]}}, {"type": "Feature", "properties": {"norad_id": 30806, "name": "FENGYUN 1C DEB", "group": "fengyun-1c-debris", "lat": -46.44948334792788, "lon": 35.99156569679858, "alt_km": 1156.0706692927088, "timestamp": "2025-12-26T15:29:39.718151+00:00", "meta": {"OBJECT_NAME": "FENGYUN 1C DEB", "OBJECT_ID": "1999-025AUQ", "EPOCH": "2025-12-26T07:15:30.079008", "MEAN_MOTION": 13.7044132, "ECCENTRICITY": 0.0267792, "INCLINATION": 99.0349, "RA_OF_ASC_NODE": 26.034, "ARG_OF_PERICENTER": 94.7675, "MEAN_ANOMALY": 327.9208, "EPHEMERIS_TYPE": 0, "CLASSIFICATION_TYPE": "U", "NORAD_CAT_ID": 30806, "ELEMENT_SET_NO": 999, "REV_AT_EPOCH": 93881, "BSTAR": 0.00074753558, "MEAN_MOTION_DOT": 8.13e-06, "MEAN_MOTION_DDOT": 0}, "tle": {"line1": "1 30806U 99025AUQ 25360.30243147  .00000813  00000+0  74754-3 0  9993", "line2": "2 30806  99.0349  26.0340 0267792  94.7675 327.9208 13.70441320938814"}}, "geometry": {"type": "Point", "coordinates": [35.99156569679858, -46.44948334792788]}}, {"type": "Feature", "properties": {"norad_id": 30809, "name": "FENGYUN 1C DEB", "group": "fengyun-1c-debris", "lat": -8.346178321957556, "lon": -91.49646243092813, "alt_km": 776.8284414644177, "timestamp": "2025-12-26T15:29:39.718162+00:00", "meta": {"OBJECT_NAME": "FENGYUN 1C DEB", "OBJECT_ID": "1999-025AUT", "EPOCH": "2025-12-26T04:32:24.359712", "MEAN_MOTION": 14.2934363, "ECCENTRICITY": 0.00520499, "INCLINATION": 98.788, "RA_OF_ASC_NODE": 89.3438, "ARG_OF_PERICENTER": 133.6928, "MEAN_ANOMALY": 226.8584, "EPHEMERIS_TYPE": 0, "CLASSIFICATION_TYPE": "U", "NORAD_CAT_ID": 30809, "ELEMENT_SET_NO": 999, "REV_AT_EPOCH": 97279, "BSTAR": 0.0017332295, "MEAN_MOTION_DOT": 4.437e-05, "MEAN_MOTION_DDOT": 0}, "tle": {"line1": "1 30809U 99025AUT 25360.18917083  .00004437  00000+0  17332-2 0  9993", "line2": "2 30809  98.7880  89.3438 0052049 133.6928 226.8584 14.29343630972793"}}, "geometry": {"type": "Point", "coordinates": [-91.49646243092813, -8.346178321957556]}}, {"type": "Feature", "properties": {"norad_id": 30810, "name": "FENGYUN 1C DEB", "group": "fengyun-1c-debris", "lat": 41.84429971815314, "lon": 164.10693405653805, "alt_km": 758.6443941782472, "timestamp": "2025-12-26T15:29:39.718172+00:00", "meta": {"OBJECT_NAME": "FENGYUN 1C DEB", "OBJECT_ID": "1999-025AUU", "EPOCH": "2025-12-25T03:23:24.509760", "MEAN_MOTION": 14.0426397, "ECCENTRICITY": 0.0179971, "INCLINATION": 98.6603, "RA_OF_ASC_NODE": 170.516, "ARG_OF_PERICENTER": 19.8149, "MEAN_ANOMALY": 340.9894, "EPHEMERIS_TYPE": 0, "CLASSIFICATION_TYPE": "U", "NORAD_CAT_ID": 30810, "ELEMENT_SET_NO": 999, "REV_AT_EPOCH": 94557, "BSTAR": 0.0030195, "MEAN_MOTION_DOT": 5.503e-05, "MEAN_MOTION_DDOT": 0}, "tle": {"line1": "1 30810U 99025AUU 25359.14125590  .00005503  00000+0  30195-2 0  9990", "line2": "2 30810  98.6603 170.5160 0179971  19.8149 340.9894 14.04263970945575"}}, "geometry": {"type": "Point", "coordinates": [164.10693405653805, 41.84429971815314]}}, {"type": "Feature", "properties": {"norad_id": 30811, "name": "FENGYUN 1C DEB", "group": "fengyun-1c-debris", "lat": 9.630463667202891, "lon": 37.13320692985965, "alt_km": 824.4698422577849, "timestamp": "2025-12-26T15:29:39.718182+00:00", "meta": {"OBJECT_NAME": "FENGYUN 1C DEB", "OBJECT_ID": "1999-025AUV", "EPOCH": "2025-12-24T01:44:19.374144", "MEAN_MOTION": 13.61876924, "ECCENTRICITY": 0.02779162, "INCLINATION": 98.7823, "RA_OF_ASC_NODE": 36.3167, "ARG_OF_PERICENTER": 16.5271, "MEAN_ANOMALY": 344.4713, "EPHEMERIS_TYPE": 0, "CLASSIFICATION_TYPE": "U", "NORAD_CAT_ID": 30811, "ELEMENT_SET_NO": 999, "REV_AT_EPOCH": 93021, "BSTAR": 0.001582937, "MEAN_MOTION_DOT": 1.538e-05, "MEAN_MOTION_DDOT": 0}, "tle": {"line1": "1 30811U 99025AUV 25358.07244646  .00001538  00000+0  15829-2 0  9997", "line2": "2 30811  98.7823  36.3167 0277916  16.5271 344.4713 13.61876924930210"}}, "geometry": {"type": "Point", "coordinates": [37.13320692985965, 9.630463667202891]}}, {"type": "Feature", "properties": {"norad_id": 30814, "name": "FENGYUN 1C DEB", "group": "fengyun-1c-debris", "lat": -40.08240040001399, "lon": -13.889237499281466, "alt_km": 711.331167298451, "timestamp": "2025-12-26T15:29:39.718192+00:00", "meta": {"OBJECT_NAME": "FENGYUN 1C DEB", "OBJECT_ID": "1999-025AUY", "EPOCH": "2025-12-25T21:44:01.114944", "MEAN_MOTION": 14.60746579, "ECCENTRICITY": 0.0030565, "INCLINATION": 99.0831, "RA_OF_ASC_NODE": 337.5626, "ARG_OF_PERICENTER": 190.6366, "MEAN_ANOMALY": 199.1367, "EPHEMERIS_TYPE": 0, "CLASSIFICATION_TYPE": "U", "NORAD_CAT_ID": 30814, "ELEMENT_SET_NO": 999, "REV_AT_EPOCH": 97934, "BSTAR": 0.0025628, "MEAN_MOTION_DOT": 0.00012548, "MEAN_MOTION_DDOT": 0}, "tle": {"line1": "1 30814U 99025AUY 25359.90556846  .00012548  00000+0  25628-2 0  9992", "line2": "2 30814  99.0831 337.5626 0030565 190.6366 199.1367 14.60746579979347"}}, "geometry": {"type": "Point", "coordinates": [-13.889237499281466, -40.08240040001399]}}]}